{"type": "FeatureCollection", "features": [ {"type": "Feature", "properties": {"norad_id": 42741, "name": "EUTELSAT 172B", "group": "eutelsat", "lat": -0.018016188453950595, "lon": -21.882573405495684, "alt_km": 35785.652446979424, "timestamp": "2025-12-27T04:40:45.171494+00:00", "meta": {"OBJECT_NAME": "EUTELSAT 172B", "OBJECT_ID": "2017-029B", "EPOCH": "2025-12-26T17:16:28.776864", "MEAN_MOTION": 1.00273653, "ECCENTRICITY": 2.717e-05, "INCLINATION": 0.0384, "RA_OF_ASC_NODE": 162.2852, "ARG_OF_PERICENTER": 80.0585, "MEAN_ANOMALY": 284.2379, "EPHEMERIS_TYPE": 0, "CLASSIFICATION_TYPE": "U", "NORAD_CAT_ID": 42741, "ELEMENT_SET_NO": 999, "REV_AT_EPOCH": 3200, "BSTAR": 0, "MEAN_MOTION_DOT": 1.7e-07, "MEAN_MOTION_DDOT": 0}, "tle": {"line1": "1 42741U 17029B   25360.71977751  .00000017  00000+0  00000+0 0  9993", "line2": "2 42741   0.0384 162.2852 0000271  80.0585 284.2379  1.00273653 32004"}}, "geometry": {"type": "Point", "coordinates": [-21.882573405495684, -0.018016188453950595]}}, {"type": "Feature", "properties": {"norad_id": 44334, "name": "EUTELSAT 7C", "group": "eutelsat", "lat": 0.0006377138384726262, "lon": 173.04364127164976, "alt_km": 35784.96842603113, "timestamp": "2025-12-27T04:40:45.171506+00:00", "meta": {"OBJECT_NAME": "EUTELSAT 7C", "OBJECT_ID": "2019-034B", "EPOCH": "2025-12-24T14:50:38.546016", "MEAN_MOTION": 1.00270796, "ECCENTRICITY": 0.00031593, "INCLINATION": 0.0726, "RA_OF_ASC_NODE": 177.7928, "ARG_OF_PERICENTER": 79.9691, "MEAN_ANOMALY": 65.2631, "EPHEMERIS_TYPE": 0, "CLASSIFICATION_TYPE": "U", "NORAD_CAT_ID": 44334, "ELEMENT_SET_NO": 999, "REV_AT_EPOCH": 508, "BSTAR": 0, "MEAN_MOTION_DOT": 6.9e-07, "MEAN_MOTION_DDOT": 0}, "tle": {"line1": "1 44334U 19034B   25358.61850169  .00000069  00000+0  00000+0 0  9997", "line2": "2 44334   0.0726 177.7928 0003159  79.9691  65.2631  1.00270796  5083"}}, "geometry": {"type": "Point", "coordinates": [173.04364127164976, 0.0006377138384726262]}}, {"type": "Feature", "properties": {"norad_id": 44624, "name": "EUTELSAT 5 WEST B", "group": "eutelsat", "lat": 0.012400885348348423, "lon": 161.07546826641232, "alt_km": 35791.355177675316, "timestamp": "2025-12-27T04:40:45.171517+00:00", "meta": {"OBJECT_NAME": "EUTELSAT 5 WEST B", "OBJECT_ID": "2019-067A", "EPOCH": "2025-12-25T22:47:38.488128", "MEAN_MOTION": 1.0027127, "ECCENTRICITY": 0.00031947, "INCLINATION": 0.0622, "RA_OF_ASC_NODE": 345.9649, "ARG_OF_PERICENTER": 287.5339, "MEAN_ANOMALY": 158.1146, "EPHEMERIS_TYPE": 0, "CLASSIFICATION_TYPE": "U", "NORAD_CAT_ID": 44624, "ELEMENT_SET_NO": 999, "REV_AT_EPOCH": 2270, "BSTAR": 0, "MEAN_MOTION_DOT": -2.1e-07, "MEAN_MOTION_DDOT": 0}, "tle": {"line1": "1 44624U 19067A   25359.94975102 -.00000021  00000+0  00000+0 0  9996", "line2": "2 44624   0.0622 345.9649 0003194 287.5339 158.1146  1.00271270 22703"}}, "geometry": {"type": "Point", "coordinates": [161.07546826641232, 0.012400885348348423]}}, {"type": "Feature", "properties": {"norad_id": 45027, "name": "EUTELSAT KONNECT", "group": "eutelsat", "lat": 0.07589440329280474, "lon": 173.26241437287914, "alt_km": 35790.99320093625, "timestamp": "2025-12-27T04:40:45.171529+00:00", "meta": {"OBJECT_NAME": "EUTELSAT KONNECT", "OBJECT_ID": "2020-005B", "EPOCH": "2025-12-24T23:24:19.351008", "MEAN_MOTION": 1.00267204, "ECCENTRICITY": 0.0001571, "INCLINATION": 0.069, "RA_OF_ASC_NODE": 93.7711, "ARG_OF_PERICENTER": 204.5991, "MEAN_ANOMALY": 153.6522, "EPHEMERIS_TYPE": 0, "CLASSIFICATION_TYPE": "U", "NORAD_CAT_ID": 45027, "ELEMENT_SET_NO": 999, "REV_AT_EPOCH": 2259, "BSTAR": 0, "MEAN_MOTION_DOT": 7e-07, "MEAN_MOTION_DDOT": 0}, "tle": {"line1": "1 45027U 20005B   25358.97522397  .00000070  00000+0  00000+0 0  9997", "line2": "2 45027   0.0690  93.7711 0001571 204.5991 153.6522  1.00267204 22591"}}, "geometry": {"type": "Point", "coordinates": [173.26241437287914, 0.07589440329280474]}}, {"type": "Feature", "properties": {"norad_id": 49056, "name": "EUTELSAT QUANTUM", "group": "eutelsat", "lat": -0.0063185678138844206, "lon": -146.23053794676764, "alt_km": 35780.951854499996, "timestamp": "2025-12-27T04:40:45.171541+00:00", "meta": {"OBJECT_NAME": "EUTELSAT QUANTUM", "OBJECT_ID": "2021-069B", "EPOCH": "2025-12-26T20:46:38.726400", "MEAN_MOTION": 1.00271496, "ECCENTRICITY": 0.0003633, "INCLINATION": 0.0145, "RA_OF_ASC_NODE": 30.9761, "ARG_OF_PERICENTER": 253.2092, "MEAN_ANOMALY": 170.7797, "EPHEMERIS_TYPE": 0, "CLASSIFICATION_TYPE": "U", "NORAD_CAT_ID": 49056, "ELEMENT_SET_NO": 999, "REV_AT_EPOCH": 1620, "BSTAR": 0, "MEAN_MOTION_DOT": 1.48e-06, "MEAN_MOTION_DDOT": 0}, "tle": {"line1": "1 49056U 21069B   25360.86572600  .00000148  00000+0  00000+0 0  9993", "line2": "2 49056   0.0145  30.9761 0003633 253.2092 170.7797  1.00271496 16207"}}, "geometry": {"type": "Point", "coordinates": [-146.23053794676764, -0.0063185678138844206]}}, {"type": "Feature", "properties": {"norad_id": 53765, "name": "EUTELSAT KONNECT VHTS", "group": "eutelsat", "lat": 0.05982203000906457, "lon": 168.77082500201726, "alt_km": 35786.9683837648, "timestamp": "2025-12-27T04:40:45.171552+00:00", "meta": {"OBJECT_NAME": "EUTELSAT KONNECT VHTS", "OBJECT_ID": "2022-110A", "EPOCH": "2025-12-26T08:51:38.739168", "MEAN_MOTION": 1.00265206, "ECCENTRICITY": 0.0002544, "INCLINATION": 0.058, "RA_OF_ASC_NODE": 98.5588, "ARG_OF_PERICENTER": 155.2379, "MEAN_ANOMALY": 336.9389, "EPHEMERIS_TYPE": 0, "CLASSIFICATION_TYPE": "U", "NORAD_CAT_ID": 53765, "ELEMENT_SET_NO": 999, "REV_AT_EPOCH": 509, "BSTAR": 0, "MEAN_MOTION_DOT": 3.8e-07, "MEAN_MOTION_DDOT": 0}, "tle": {"line1": "1 53765U 22110A   25360.36919837  .00000038  00000+0  00000+0 0  9993", "line2": "2 53765   0.0580  98.5588 0002544 155.2379 336.9389  1.00265206  5098"}}, "geometry": {"type": "Point", "coordinates": [168.77082500201726, 0.05982203000906457]}}, {"type": "Feature", "properties": {"norad_id": 54048, "name": "EUTELSAT HOTBIRD 13F", "group": "eutelsat", "lat": -0.04166706513793677, "lon": 179.1009639486435, "alt_km": 35795.433347610866, "timestamp": "2025-12-27T04:40:45.171564+00:00", "meta": {"OBJECT_NAME": "EUTELSAT HOTBIRD 13F", "OBJECT_ID": "2022-134A", "EPOCH": "2025-12-24T23:25:56.697024", "MEAN_MOTION": 1.00270775, "ECCENTRICITY": 0.0002211, "INCLINATION": 0.0545, "RA_OF_ASC_NODE": 289.4002, "ARG_OF_PERICENTER": 71.817, "MEAN_ANOMALY": 97.0057, "EPHEMERIS_TYPE": 0, "CLASSIFICATION_TYPE": "U", "NORAD_CAT_ID": 54048, "ELEMENT_SET_NO": 999, "REV_AT_EPOCH": 1163, "BSTAR": 0, "MEAN_MOTION_DOT": 1.08e-06, "MEAN_MOTION_DDOT": 0}, "tle": {"line1": "1 54048U 22134A   25358.97635066  .00000108  00000+0  00000+0 0  9995", "line2": "2 54048   0.0545 289.4002 0002211  71.8170  97.0057  1.00270775 11630"}}, "geometry": {"type": "Point", "coordinates": [179.1009639486435, -0.04166706513793677]}}, {"type": "Feature", "properties": {"norad_id": 54225, "name": "EUTELSAT HOTBIRD 13G", "group": "eutelsat", "lat": -0.03253208656359686, "lon": 179.0801624706673, "alt_km": 35779.423307306635, "timestamp": "2025-12-27T04:40:45.171576+00:00", "meta": {"OBJECT_NAME": "EUTELSAT HOTBIRD 13G", "OBJECT_ID": "2022-146A", "EPOCH": "2025-12-24T00:28:38.654112", "MEAN_MOTION": 1.00268836, "ECCENTRICITY": 0.00017131, "INCLINATION": 0.0535, "RA_OF_ASC_NODE": 227.8066, "ARG_OF_PERICENTER": 307.349, "MEAN_ANOMALY": 297.8001, "EPHEMERIS_TYPE": 0, "CLASSIFICATION_TYPE": "U", "NORAD_CAT_ID": 54225, "ELEMENT_SET_NO": 999, "REV_AT_EPOCH": 571, "BSTAR": 0, "MEAN_MOTION_DOT": 1.08e-06, "MEAN_MOTION_DDOT": 0}, "tle": {"line1": "1 54225U 22146A   25358.01989183  .00000108  00000+0  00000+0 0  9992", "line2": "2 54225   0.0535 227.8066 0001713 307.3490 297.8001  1.00268836  5716"}}, "geometry": {"type": "Point", "coordinates": [179.0801624706673, -0.03253208656359686]}}, {"type": "Feature", "properties": {"norad_id": 54259, "name": "EUTELSAT 10B", "group": "eutelsat", "lat": 0.06226841278885977, "lon": 176.15624082291177, "alt_km": 35792.69445369341, "timestamp": "2025-12-27T04:40:45.171588+00:00", "meta": {"OBJECT_NAME": "EUTELSAT 10B", "OBJECT_ID": "2022-157A", "EPOCH": "2025-12-26T08:43:38.554752", "MEAN_MOTION": 1.00276364, "ECCENTRICITY": 0.00022407, "INCLINATION": 0.0597, "RA_OF_ASC_NODE": 94.7662, "ARG_OF_PERICENTER": 293.3487, "MEAN_ANOMALY": 207.9237, "EPHEMERIS_TYPE": 0, "CLASSIFICATION_TYPE": "U", "NORAD_CAT_ID": 54259, "ELEMENT_SET_NO": 999, "REV_AT_EPOCH": 1129, "BSTAR": 0, "MEAN_MOTION_DOT": 9.1e-07, "MEAN_MOTION_DDOT": 0}, "tle": {"line1": "1 54259U 22157A   25360.36364068  .00000091  00000+0  00000+0 0  9992", "line2": "2 54259   0.0597  94.7662 0002240 293.3487 207.9237  1.00276364 11298"}}, "geometry": {"type": "Point", "coordinates": [176.15624082291177, 0.06226841278885977]}}, {"type": "Feature", "properties": {"norad_id": 59346, "name": "EUTELSAT 36D", "group": "eutelsat", "lat": -0.00031677066724123624, "lon": -158.01889458371062, "alt_km": 35789.17434099424, "timestamp": "2025-12-27T04:40:45.171599+00:00", "meta": {"OBJECT_NAME": "EUTELSAT 36D", "OBJECT_ID": "2024-059A", "EPOCH": "2025-12-26T22:30:38.456640", "MEAN_MOTION": 1.00263998, "ECCENTRICITY": 3.096e-05, "INCLINATION": 0.0196, "RA_OF_ASC_NODE": 28.2975, "ARG_OF_PERICENTER": 310.2493, "MEAN_ANOMALY": 130.6699, "EPHEMERIS_TYPE": 0, "CLASSIFICATION_TYPE": "U", "NORAD_CAT_ID": 59346, "ELEMENT_SET_NO": 999, "REV_AT_EPOCH": 642, "BSTAR": 0, "MEAN_MOTION_DOT": 0, "MEAN_MOTION_DDOT": 0}, "tle": {"line1": "1 59346U 24059A   25360.93794510  .00000000  00000+0  00000+0 0  9999", "line2": "2 59346   0.0196  28.2975 0000309 310.2493 130.6699  1.00263998  6426"}}, "geometry": {"type": "Point", "coordinates": [-158.01889458371062, -0.00031677066724123624]}}]}